[{"OBJECT_NAME":"ONEWEB-0275","OBJECT_ID":"2021-060AC","EPOCH":"2026-05-28T05:48:48.258144","MEAN_MOTION":13.16593636,"ECCENTRICITY":0.0001985,"INCLINATION":87.9107,"RA_OF_ASC_NODE":232.735,"ARG_OF_PERICENTER":95.8616,"MEAN_ANOMALY":264.2741,"EPHEMERIS_TYPE":0,"CLASSIFICATION_TYPE":"U","NORAD_CAT_ID":48993,"ELEMENT_SET_NO":999,"REV_AT_EPOCH":23693,"BSTAR":0.00012112,"MEAN_MOTION_DOT":5.9e-07,"MEAN_MOTION_DDOT":0.0},{"OBJECT_NAME":"ONEWEB-0276","OBJECT_ID":"2021-060AD","EPOCH":"2026-05-28T06:36:40.446432","MEAN_MOTION":13.16592968,"ECCENTRICITY":0.000208,"INCLINATION":87.9104,"RA_OF_ASC_NODE":232.7283,"ARG_OF_PERICENTER":95.8646,"MEAN_ANOMALY":264.2722,"EPHEMERIS_TYPE":0,"CLASSIFICATION_TYPE":"U","NORAD_CAT_ID":48994,"ELEMENT_SET_NO":999,"REV_AT_EPOCH":23695,"BSTAR":-9.3872e-05,"MEAN_MOTION_DOT":-2.3e-07,"MEAN_MOTION_DDOT":0.0},{"OBJECT_NAME":"ONEWEB-0277","OBJECT_ID":"2021-060AE","EPOCH":"2026-05-28T06:54:54.846720","MEAN_MOTION":13.16592492,"ECCENTRICITY":0.0001839,"INCLINATION":87.9098,"RA_OF_ASC_NODE":232.7356,"ARG_OF_PERICENTER":99.0669,"MEAN_ANOMALY":261.067,"EPHEMERIS_TYPE":0,"CLASSIFICATION_TYPE":"U","NORAD_CAT_ID":48995,"ELEMENT_SET_NO":999,"REV_AT_EPOCH":23694,"BSTAR":0.00014222,"MEAN_MOTION_DOT":6.7e-07,"MEAN_MOTION_DDOT":0.0},{"OBJECT_NAME":"ONEWEB-0278","OBJECT_ID":"2021-060AF","EPOCH":"2026-05-28T06:41:14.902080","MEAN_MOTION":13.1659566,"ECCENTRICITY":0.0002111,"INCLINATION":87.9107,"RA_OF_ASC_NODE":232.7263,"ARG_OF_PERICENTER":106.2212,"MEAN_ANOMALY":253.9152,"EPHEMERIS_TYPE":0,"CLASSIFICATION_TYPE":"U","NORAD_CAT_ID":48996,"ELEMENT_SET_NO":999,"REV_AT_EPOCH":23707,"BSTAR":2.698e-05,"MEAN_MOTION_DOT":2.3e-07,"MEAN_MOTION_DDOT":0.0},{"OBJECT_NAME":"ONEWEB-0279","OBJECT_ID":"2021-060AG","EPOCH":"2026-05-28T06:52:38.641440","MEAN_MOTION":13.16592908,"ECCENTRICITY":0.0001849,"INCLINATION":87.9106,"RA_OF_ASC_NODE":232.7232,"ARG_OF_PERICENTER":93.1719,"MEAN_ANOMALY":266.9623,"EPHEMERIS_TYPE":0,"CLASSIFICATION_TYPE":"U","NORAD_CAT_ID":48997,"ELEMENT_SET_NO":999,"REV_AT_EPOCH":23700,"BSTAR":4.3743e-05,"MEAN_MOTION_DOT":3e-07,"MEAN_MOTION_DDOT":0.0},{"OBJECT_NAME":"ONEWEB-0280","OBJECT_ID":"2021-060AH","EPOCH":"2026-05-28T05:24:50.385888","MEAN_MOTION":13.16596742,"ECCENTRICITY":0.0001746,"INCLINATION":87.9107,"RA_OF_ASC_NODE":232.7394,"ARG_OF_PERICENTER":107.7658,"MEAN_ANOMALY":252.3663,"EPHEMERIS_TYPE":0,"CLASSIFICATION_TYPE":"U","NORAD_CAT_ID":48998,"ELEMENT_SET_NO":999,"REV_AT_EPOCH":23693,"BSTAR":0.00041737999999999996,"MEAN_MOTION_DOT":1.72e-06,"MEAN_MOTION_DDOT":0.0},{"OBJECT_NAME":"ONEWEB-0281","OBJECT_ID":"2021-060AJ","EPOCH":"2026-05-28T05:32:51.171648","MEAN_MOTION":13.16594093,"ECCENTRICITY":0.000203,"INCLINATION":87.9109,"RA_OF_ASC_NODE":232.7331,"ARG_OF_PERICENTER":100.5891,"MEAN_ANOMALY":259.5469,"EPHEMERIS_TYPE":0,"CLASSIFICATION_TYPE":"U","NORAD_CAT_ID":48999,"ELEMENT_SET_NO":999,"REV_AT_EPOCH":23700,"BSTAR":0.00031952000000000006,"MEAN_MOTION_DOT":1.35e-06,"MEAN_MOTION_DDOT":0.0},{"OBJECT_NAME":"ONEWEB-0282","OBJECT_ID":"2021-060AK","EPOCH":"2026-05-28T06:16:10.056864","MEAN_MOTION":13.16595645,"ECCENTRICITY":0.0001866,"INCLINATION":87.9105,"RA_OF_ASC_NODE":232.7364,"ARG_OF_PERICENTER":100.9173,"MEAN_ANOMALY":259.2168,"EPHEMERIS_TYPE":0,"CLASSIFICATION_TYPE":"U","NORAD_CAT_ID":49000,"ELEMENT_SET_NO":999,"REV_AT_EPOCH":23698,"BSTAR":-0.00022575,"MEAN_MOTION_DOT":-7.3e-07,"MEAN_MOTION_DDOT":0.0},{"OBJECT_NAME":"ONEWEB-0283","OBJECT_ID":"2021-060AL","EPOCH":"2026-05-28T06:00:11.539584","MEAN_MOTION":13.16592976,"ECCENTRICITY":0.0001893,"INCLINATION":87.9105,"RA_OF_ASC_NODE":232.7379,"ARG_OF_PERICENTER":96.4705,"MEAN_ANOMALY":263.6642,"EPHEMERIS_TYPE":0,"CLASSIFICATION_TYPE":"U","NORAD_CAT_ID":49001,"ELEMENT_SET_NO":999,"REV_AT_EPOCH":23699,"BSTAR":-0.00020141999999999998,"MEAN_MOTION_DOT":-6.4e-07,"MEAN_MOTION_DDOT":0.0},{"OBJECT_NAME":"ONEWEB-0284","OBJECT_ID":"2021-060AM","EPOCH":"2026-05-28T05:51:04.955040","MEAN_MOTION":13.16593785,"ECCENTRICITY":0.0001963,"INCLINATION":87.9107,"RA_OF_ASC_NODE":232.7321,"ARG_OF_PERICENTER":110.6697,"MEAN_ANOMALY":249.4645,"EPHEMERIS_TYPE":0,"CLASSIFICATION_TYPE":"U","NORAD_CAT_ID":49002,"ELEMENT_SET_NO":999,"REV_AT_EPOCH":23697,"BSTAR":6.091100000000001e-05,"MEAN_MOTION_DOT":3.6e-07,"MEAN_MOTION_DDOT":0.0},{"OBJECT_NAME":"ONEWEB-0285","OBJECT_ID":"2021-075A","EPOCH":"2026-05-28T02:04:01.734816","MEAN_MOTION":13.12443054,"ECCENTRICITY":0.0001732,"INCLINATION":87.8957,"RA_OF_ASC_NODE":354.6595,"ARG_OF_PERICENTER":86.4343,"MEAN_ANOMALY":273.6984,"EPHEMERIS_TYPE":0,"CLASSIFICATION_TYPE":"U","NORAD_CAT_ID":49075,"ELEMENT_SET_NO":999,"REV_AT_EPOCH":23257,"BSTAR":0.00039469,"MEAN_MOTION_DOT":1.55e-06,"MEAN_MOTION_DDOT":0.0},{"OBJECT_NAME":"ONEWEB-0286","OBJECT_ID":"2021-075B","EPOCH":"2026-05-28T01:38:11.858784","MEAN_MOTION":13.12442372,"ECCENTRICITY":0.000199,"INCLINATION":87.8946,"RA_OF_ASC_NODE":354.6817,"ARG_OF_PERICENTER":88.7702,"MEAN_ANOMALY":271.3655,"EPHEMERIS_TYPE":0,"CLASSIFICATION_TYPE":"U","NORAD_CAT_ID":49076,"ELEMENT_SET_NO":999,"REV_AT_EPOCH":23192,"BSTAR":-0.0008605,"MEAN_MOTION_DOT":-2.97e-06,"MEAN_MOTION_DDOT":0.0},{"OBJECT_NAME":"ONEWEB-0287","OBJECT_ID":"2021-075C","EPOCH":"2026-05-28T02:52:04.257408","MEAN_MOTION":13.1764794,"ECCENTRICITY":0.0002178,"INCLINATION":87.9149,"RA_OF_ASC_NODE":9.8573,"ARG_OF_PERICENTER":92.057,"MEAN_ANOMALY":268.0811,"EPHEMERIS_TYPE":0,"CLASSIFICATION_TYPE":"U","NORAD_CAT_ID":49077,"ELEMENT_SET_NO":999,"REV_AT_EPOCH":23098,"BSTAR":-0.00014194,"MEAN_MOTION_DOT":-4.2e-07,"MEAN_MOTION_DDOT":0.0},{"OBJECT_NAME":"ONEWEB-0288","OBJECT_ID":"2021-075D","EPOCH":"2026-05-28T06:33:35.740512","MEAN_MOTION":13.12441118,"ECCENTRICITY":0.0001878,"INCLINATION":87.8955,"RA_OF_ASC_NODE":354.616,"ARG_OF_PERICENTER":93.2952,"MEAN_ANOMALY":266.8391,"EPHEMERIS_TYPE":0,"CLASSIFICATION_TYPE":"U","NORAD_CAT_ID":49078,"ELEMENT_SET_NO":999,"REV_AT_EPOCH":23257,"BSTAR":5.0191e-05,"MEAN_MOTION_DOT":3.1e-07,"MEAN_MOTION_DDOT":0.0},{"OBJECT_NAME":"ONEWEB-0289","OBJECT_ID":"2021-075E","EPOCH":"2026-05-28T03:47:46.129056","MEAN_MOTION":13.17647719,"ECCENTRICITY":0.0001479,"INCLINATION":87.9155,"RA_OF_ASC_NODE":9.8654,"ARG_OF_PERICENTER":91.9436,"MEAN_ANOMALY":268.1865,"EPHEMERIS_TYPE":0,"CLASSIFICATION_TYPE":"U","NORAD_CAT_ID":49079,"ELEMENT_SET_NO":999,"REV_AT_EPOCH":23156,"BSTAR":0.0001784,"MEAN_MOTION_DOT":8.2e-07,"MEAN_MOTION_DDOT":0.0},{"OBJECT_NAME":"ONEWEB-0290","OBJECT_ID":"2021-075F","EPOCH":"2026-05-28T03:09:05.863104","MEAN_MOTION":13.17649291,"ECCENTRICITY":0.0001347,"INCLINATION":87.9157,"RA_OF_ASC_NODE":9.8418,"ARG_OF_PERICENTER":94.8165,"MEAN_ANOMALY":265.312,"EPHEMERIS_TYPE":0,"CLASSIFICATION_TYPE":"U","NORAD_CAT_ID":49080,"ELEMENT_SET_NO":999,"REV_AT_EPOCH":23097,"BSTAR":0.00015236,"MEAN_MOTION_DOT":7.2e-07,"MEAN_MOTION_DDOT":0.0}]