ONEWEB-0275             
1 48993U 21060AC  26148.24222521  .00000059  00000+0  12112-3 0  9996
2 48993  87.9107 232.7350 0001985  95.8616 264.2741 13.16593636236939
ONEWEB-0276             
1 48994U 21060AD  26148.27546813 -.00000023  00000+0 -93872-4 0  9999
2 48994  87.9104 232.7283 0002080  95.8646 264.2722 13.16592968236950
ONEWEB-0277             
1 48995U 21060AE  26148.28813480  .00000067  00000+0  14222-3 0  9995
2 48995  87.9098 232.7356 0001839  99.0669 261.0670 13.16592492236944
ONEWEB-0278             
1 48996U 21060AF  26148.27864470  .00000023  00000+0  26980-4 0  9997
2 48996  87.9107 232.7263 0002111 106.2212 253.9152 13.16595660237072
ONEWEB-0279             
1 48997U 21060AG  26148.28655835  .00000030  00000+0  43743-4 0  9996
2 48997  87.9106 232.7232 0001849  93.1719 266.9623 13.16592908237003
ONEWEB-0280             
1 48998U 21060AH  26148.22558317  .00000172  00000+0  41738-3 0  9996
2 48998  87.9107 232.7394 0001746 107.7658 252.3663 13.16596742236938
ONEWEB-0281             
1 48999U 21060AJ  26148.23114782  .00000135  00000+0  31952-3 0  9998
2 48999  87.9109 232.7331 0002030 100.5891 259.5469 13.16594093237008
ONEWEB-0282             
1 49000U 21060AK  26148.26122751 -.00000073  00000+0 -22575-3 0  9994
2 49000  87.9105 232.7364 0001866 100.9173 259.2168 13.16595645236980
ONEWEB-0283             
1 49001U 21060AL  26148.25013356 -.00000064  00000+0 -20142-3 0  9992
2 49001  87.9105 232.7379 0001893  96.4705 263.6642 13.16592976236998
ONEWEB-0284             
1 49002U 21060AM  26148.24380735  .00000036  00000+0  60911-4 0  9996
2 49002  87.9107 232.7321 0001963 110.6697 249.4645 13.16593785236977
ONEWEB-0285             
1 49075U 21075A   26148.08613119  .00000155  00000+0  39469-3 0  9994
2 49075  87.8957 354.6595 0001732  86.4343 273.6984 13.12443054232574
ONEWEB-0286             
1 49076U 21075B   26148.06819281 -.00000297  00000+0 -86050-3 0  9998
2 49076  87.8946 354.6817 0001990  88.7702 271.3655 13.12442372231920
ONEWEB-0287             
1 49077U 21075C   26148.11949372 -.00000042  00000+0 -14194-3 0  9998
2 49077  87.9149   9.8573 0002178  92.0570 268.0811 13.17647940230980
ONEWEB-0288             
1 49078U 21075D   26148.27333033  .00000031  00000+0  50191-4 0  9991
2 49078  87.8955 354.6160 0001878  93.2952 266.8391 13.12441118232571
ONEWEB-0289             
1 49079U 21075E   26148.15817279  .00000082  00000+0  17840-3 0  9997
2 49079  87.9155   9.8654 0001479  91.9436 268.1865 13.17647719231560
ONEWEB-0290             
1 49080U 21075F   26148.13131786  .00000072  00000+0  15236-3 0  9995
2 49080  87.9157   9.8418 0001347  94.8165 265.3120 13.17649291230971
